{
    "__header": "Data accessed and file created at 2023-03-06 19:13:19.078298",
    "22566": {
        "gp_hist": [
            {
                "CCSDS_OMM_VERS": "2.0",
                "COMMENT": "GENERATED VIA SPACE-TRACK.ORG API",
                "CREATION_DATE": "2023-03-06T14:36:13",
                "ORIGINATOR": "18 SPCS",
                "OBJECT_NAME": "SL-16 R/B",
                "OBJECT_ID": "1993-016B",
                "CENTER_NAME": "EARTH",
                "REF_FRAME": "TEME",
                "TIME_SYSTEM": "UTC",
                "MEAN_ELEMENT_THEORY": "SGP4",
                "EPOCH": "2023-03-06T07:01:13.620864",
                "MEAN_MOTION": "14.15041986",
                "ECCENTRICITY": "0.00112950",
                "INCLINATION": "71.0103",
                "RA_OF_ASC_NODE": "3.7172",
                "ARG_OF_PERICENTER": "207.2926",
                "MEAN_ANOMALY": "152.7605",
                "EPHEMERIS_TYPE": "0",
                "CLASSIFICATION_TYPE": "U",
                "NORAD_CAT_ID": "22566",
                "ELEMENT_SET_NO": "999",
                "REV_AT_EPOCH": "54664",
                "BSTAR": "0.00024773000000",
                "MEAN_MOTION_DOT": "0.00000433",
                "MEAN_MOTION_DDOT": "0.0000000000000",
                "SEMIMAJOR_AXIS": "7220.306",
                "PERIOD": "101.764",
                "APOAPSIS": "850.327",
                "PERIAPSIS": "834.016",
                "OBJECT_TYPE": "ROCKET BODY",
                "RCS_SIZE": "LARGE",
                "COUNTRY_CODE": "CIS",
                "LAUNCH_DATE": "1993-03-26",
                "SITE": "TTMTR",
                "DECAY_DATE": null,
                "FILE": "3852719",
                "GP_ID": "227594805",
                "TLE_LINE0": "0 SL-16 R/B",
                "TLE_LINE1": "1 22566U 93016B   23065.29251876  .00000433  00000-0  24773-3 0  9992",
                "TLE_LINE2": "2 22566  71.0103   3.7172 0011295 207.2926 152.7605 14.15041986546641"
            },
            {
                "CCSDS_OMM_VERS": "2.0",
                "COMMENT": "GENERATED VIA SPACE-TRACK.ORG API",
                "CREATION_DATE": "2023-03-06T02:27:07",
                "ORIGINATOR": "18 SPCS",
                "OBJECT_NAME": "SL-16 R/B",
                "OBJECT_ID": "1993-016B",
                "CENTER_NAME": "EARTH",
                "REF_FRAME": "TEME",
                "TIME_SYSTEM": "UTC",
                "MEAN_ELEMENT_THEORY": "SGP4",
                "EPOCH": "2023-03-05T22:32:15.339552",
                "MEAN_MOTION": "14.15041692",
                "ECCENTRICITY": "0.00113200",
                "INCLINATION": "71.0102",
                "RA_OF_ASC_NODE": "4.4591",
                "ARG_OF_PERICENTER": "207.7390",
                "MEAN_ANOMALY": "152.3131",
                "EPHEMERIS_TYPE": "0",
                "CLASSIFICATION_TYPE": "U",
                "NORAD_CAT_ID": "22566",
                "ELEMENT_SET_NO": "999",
                "REV_AT_EPOCH": "54658",
                "BSTAR": "0.00024449000000",
                "MEAN_MOTION_DOT": "0.00000426",
                "MEAN_MOTION_DDOT": "0.0000000000000",
                "SEMIMAJOR_AXIS": "7220.307",
                "PERIOD": "101.764",
                "APOAPSIS": "850.346",
                "PERIAPSIS": "833.999",
                "OBJECT_TYPE": "ROCKET BODY",
                "RCS_SIZE": "LARGE",
                "COUNTRY_CODE": "CIS",
                "LAUNCH_DATE": "1993-03-26",
                "SITE": "TTMTR",
                "DECAY_DATE": null,
                "FILE": "3852256",
                "GP_ID": "227563622",
                "TLE_LINE0": "0 SL-16 R/B",
                "TLE_LINE1": "1 22566U 93016B   23064.93906643  .00000426  00000-0  24449-3 0  9993",
                "TLE_LINE2": "2 22566  71.0102   4.4591 0011320 207.7390 152.3131 14.15041692546589"
            },
            {
                "CCSDS_OMM_VERS": "2.0",
                "COMMENT": "GENERATED VIA SPACE-TRACK.ORG API",
                "CREATION_DATE": "2023-03-05T20:32:20",
                "ORIGINATOR": "18 SPCS",
                "OBJECT_NAME": "SL-16 R/B",
                "OBJECT_ID": "1993-016B",
                "CENTER_NAME": "EARTH",
                "REF_FRAME": "TEME",
                "TIME_SYSTEM": "UTC",
                "MEAN_ELEMENT_THEORY": "SGP4",
                "EPOCH": "2023-03-05T05:34:18.767424",
                "MEAN_MOTION": "14.15040983",
                "ECCENTRICITY": "0.00113550",
                "INCLINATION": "71.0100",
                "RA_OF_ASC_NODE": "5.9431",
                "ARG_OF_PERICENTER": "208.7055",
                "MEAN_ANOMALY": "151.3444",
                "EPHEMERIS_TYPE": "0",
                "CLASSIFICATION_TYPE": "U",
                "NORAD_CAT_ID": "22566",
                "ELEMENT_SET_NO": "999",
                "REV_AT_EPOCH": "54648",
                "BSTAR": "0.00023201000000",
                "MEAN_MOTION_DOT": "0.00000402",
                "MEAN_MOTION_DDOT": "0.0000000000000",
                "SEMIMAJOR_AXIS": "7220.310",
                "PERIOD": "101.764",
                "APOAPSIS": "850.373",
                "PERIAPSIS": "833.976",
                "OBJECT_TYPE": "ROCKET BODY",
                "RCS_SIZE": "LARGE",
                "COUNTRY_CODE": "CIS",
                "LAUNCH_DATE": "1993-03-26",
                "SITE": "TTMTR",
                "DECAY_DATE": null,
                "FILE": "3851939",
                "GP_ID": "227530178",
                "TLE_LINE0": "0 SL-16 R/B",
                "TLE_LINE1": "1 22566U 93016B   23064.23216166  .00000402  00000-0  23201-3 0  9999",
                "TLE_LINE2": "2 22566  71.0100   5.9431 0011355 208.7055 151.3444 14.15040983546480"
            },
            {
                "CCSDS_OMM_VERS": "2.0",
                "COMMENT": "GENERATED VIA SPACE-TRACK.ORG API",
                "CREATION_DATE": "2023-03-05T15:26:12",
                "ORIGINATOR": "18 SPCS",
                "OBJECT_NAME": "SL-16 R/B",
                "OBJECT_ID": "1993-016B",
                "CENTER_NAME": "EARTH",
                "REF_FRAME": "TEME",
                "TIME_SYSTEM": "UTC",
                "MEAN_ELEMENT_THEORY": "SGP4",
                "EPOCH": "2023-03-05T05:34:18.767424",
                "MEAN_MOTION": "14.15040983",
                "ECCENTRICITY": "0.00113550",
                "INCLINATION": "71.0100",
                "RA_OF_ASC_NODE": "5.9431",
                "ARG_OF_PERICENTER": "208.7055",
                "MEAN_ANOMALY": "151.3444",
                "EPHEMERIS_TYPE": "0",
                "CLASSIFICATION_TYPE": "U",
                "NORAD_CAT_ID": "22566",
                "ELEMENT_SET_NO": "999",
                "REV_AT_EPOCH": "54649",
                "BSTAR": "0.00023201000000",
                "MEAN_MOTION_DOT": "0.00000402",
                "MEAN_MOTION_DDOT": "0.0000000000000",
                "SEMIMAJOR_AXIS": "7220.310",
                "PERIOD": "101.764",
                "APOAPSIS": "850.373",
                "PERIAPSIS": "833.976",
                "OBJECT_TYPE": "ROCKET BODY",
                "RCS_SIZE": "LARGE",
                "COUNTRY_CODE": "CIS",
                "LAUNCH_DATE": "1993-03-26",
                "SITE": "TTMTR",
                "DECAY_DATE": null,
                "FILE": "3851755",
                "GP_ID": "227521516",
                "TLE_LINE0": "0 SL-16 R/B",
                "TLE_LINE1": "1 22566U 93016B   23064.23216166  .00000402  00000-0  23201-3 0  9999",
                "TLE_LINE2": "2 22566  71.0100   5.9431 0011355 208.7055 151.3444 14.15040983546491"
            },
            {
                "CCSDS_OMM_VERS": "2.0",
                "COMMENT": "GENERATED VIA SPACE-TRACK.ORG API",
                "CREATION_DATE": "2023-03-04T18:23:08",
                "ORIGINATOR": "18 SPCS",
                "OBJECT_NAME": "SL-16 R/B",
                "OBJECT_ID": "1993-016B",
                "CENTER_NAME": "EARTH",
                "REF_FRAME": "TEME",
                "TIME_SYSTEM": "UTC",
                "MEAN_ELEMENT_THEORY": "SGP4",
                "EPOCH": "2023-03-04T05:49:11.494560",
                "MEAN_MOTION": "14.15040236",
                "ECCENTRICITY": "0.00114130",
                "INCLINATION": "71.0098",
                "RA_OF_ASC_NODE": "8.0205",
                "ARG_OF_PERICENTER": "210.0416",
                "MEAN_ANOMALY": "150.0053",
                "EPHEMERIS_TYPE": "0",
                "CLASSIFICATION_TYPE": "U",
                "NORAD_CAT_ID": "22566",
                "ELEMENT_SET_NO": "999",
                "REV_AT_EPOCH": "54634",
                "BSTAR": "0.00022176000000",
                "MEAN_MOTION_DOT": "0.00000382",
                "MEAN_MOTION_DDOT": "0.0000000000000",
                "SEMIMAJOR_AXIS": "7220.312",
                "PERIOD": "101.764",
                "APOAPSIS": "850.418",
                "PERIAPSIS": "833.937",
                "OBJECT_TYPE": "ROCKET BODY",
                "RCS_SIZE": "LARGE",
                "COUNTRY_CODE": "CIS",
                "LAUNCH_DATE": "1993-03-26",
                "SITE": "TTMTR",
                "DECAY_DATE": null,
                "FILE": "3851072",
                "GP_ID": "227458509",
                "TLE_LINE0": "0 SL-16 R/B",
                "TLE_LINE1": "1 22566U 93016B   23063.24249415  .00000382  00000-0  22176-3 0  9999",
                "TLE_LINE2": "2 22566  71.0098   8.0205 0011413 210.0416 150.0053 14.15040236546349"
            }
        ],
        "vimpelId": null,
        "depth": null,
        "name": "Zenit-2 second stage",
        "cosparId": "1993-016B",
        "xSectAvg": 37.8287025400381,
        "shape": "Cyl",
        "width": null,
        "xSectMax": 42.2826001059582,
        "height": 10.4,
        "diameter": 3.9,
        "xSectMin": 11.9459060652752,
        "mass": 8500.0,
        "span": 10.4,
        "satno": 22566,
        "objectClass": "Rocket Body"
    }
}
